SL-3 R/B                
1 13403U 82079B   26031.12339573  .00005789  00000+0  23426-3 0  9990
2 13403  81.1438 237.4213 0024263 294.6628  65.2078 15.24261160371977
SL-14 R/B               
1 13553U 82092B   26031.17427618  .00000702  00000+0  76016-4 0  9998
2 13553  82.5693 176.4778 0021735  67.4589 105.4278 14.86621042323356
SL-3 R/B                
1 13819U 83010B   26031.08350262  .00013418  00000+0  28192-3 0  9993
2 13819  81.1015  48.3109 0017229 172.4998 187.6508 15.45040677352134
SL-3 R/B                
1 14208U 83075B   26031.14467674  .00011868  00000+0  32305-3 0  9998
2 14208  97.6118  34.3368 0022401   9.7505 350.4169 15.37420483324386
COSMOS 1536             
1 14699U 84013A   26030.82391849  .00007171  00000+0  30003-3 0  9994
2 14699  82.5478 145.4642 0015427  58.9640 301.3109 15.23299105266853
SL-14 R/B               
1 14820U 84027B   26031.11838024  .00000554  00000+0  60534-4 0  9990
2 14820  82.5413 280.2561 0019515  97.1972 263.1464 14.85938117242056
SL-8 R/B                
1 15483U 85006B   26031.16196437  .00000325  00000+0  11654-3 0  9998
2 15483  74.0477 330.2002 0019695 254.8842 205.7872 14.37762345148630
SL-12 R/B(2)            
1 15772U 85042D   26031.15114292  .00000204  00000+0  11331-3 0  9995
2 15772  71.1080 167.0338 0035462 187.7968 344.5637 14.21970439109052
SL-14 R/B               
1 15945U 85069B   26031.11453991  .00000581  00000+0  62945-4 0  9990
2 15945  82.5240  60.2754 0017744 320.7727  39.2203 14.86387579167250
SL-16 R/B               
1 16182U 85097B   26031.01655183  .00000287  00000+0  16797-3 0  9997
2 16182  71.0008 219.8627 0009214 304.0599 217.2133 14.16593276 81896
SL-14 R/B               
1 16496U 86006B   26031.10144182  .00000932  00000+0  96188-4 0  9998
2 16496  82.5281 295.1135 0077638  38.2266 322.4419 14.86758376143624
COSMOS 1743             
1 16719U 86034A   26030.66270316  .00036582  00000+0  52820-3 0  9990
2 16719  82.5351 113.6501 0005403  77.5049 282.6809 15.55775273174331
