CCSDS_OMM_VERS = 2.0
CREATION_DATE  = 
ORIGINATOR     = 

OBJECT_NAME    = SL-3 R/B
OBJECT_ID      = 1982-079B
CENTER_NAME    = EARTH
REF_FRAME      = TEME
TIME_SYSTEM    = UTC
MEAN_ELEMENT_THEORY = SGP/SGP4

EPOCH          = 2026-01-31T02:57:41.391072
MEAN_MOTION    = 15.24261160
ECCENTRICITY   = .0024263
INCLINATION    = 81.1438
RA_OF_ASC_NODE = 237.4213
ARG_OF_PERICENTER = 294.6628
MEAN_ANOMALY   = 65.2078

EPHEMERIS_TYPE = 0
CLASSIFICATION_TYPE = U
NORAD_CAT_ID   = 13403
ELEMENT_SET_NO = 999
REV_AT_EPOCH   = 37197
BSTAR          = .23426E-3
MEAN_MOTION_DOT = .5789E-4
MEAN_MOTION_DDOT = 0

CCSDS_OMM_VERS = 2.0
CREATION_DATE  = 
ORIGINATOR     = 

OBJECT_NAME    = SL-14 R/B
OBJECT_ID      = 1982-092B
CENTER_NAME    = EARTH
REF_FRAME      = TEME
TIME_SYSTEM    = UTC
MEAN_ELEMENT_THEORY = SGP/SGP4

EPOCH          = 2026-01-31T04:10:57.461952
MEAN_MOTION    = 14.86621042
ECCENTRICITY   = .0021735
INCLINATION    = 82.5693
RA_OF_ASC_NODE = 176.4778
ARG_OF_PERICENTER = 67.4589
MEAN_ANOMALY   = 105.4278

EPHEMERIS_TYPE = 0
CLASSIFICATION_TYPE = U
NORAD_CAT_ID   = 13553
ELEMENT_SET_NO = 999
REV_AT_EPOCH   = 32335
BSTAR          = .76016E-4
MEAN_MOTION_DOT = .702E-5
MEAN_MOTION_DDOT = 0

CCSDS_OMM_VERS = 2.0
CREATION_DATE  = 
ORIGINATOR     = 

OBJECT_NAME    = SL-3 R/B
OBJECT_ID      = 1983-010B
CENTER_NAME    = EARTH
REF_FRAME      = TEME
TIME_SYSTEM    = UTC
MEAN_ELEMENT_THEORY = SGP/SGP4

EPOCH          = 2026-01-31T02:00:14.626368
MEAN_MOTION    = 15.45040677
ECCENTRICITY   = .0017229
INCLINATION    = 81.1015
RA_OF_ASC_NODE = 48.3109
ARG_OF_PERICENTER = 172.4998
MEAN_ANOMALY   = 187.6508

EPHEMERIS_TYPE = 0
CLASSIFICATION_TYPE = U
NORAD_CAT_ID   = 13819
ELEMENT_SET_NO = 999
REV_AT_EPOCH   = 35213
BSTAR          = .28192E-3
MEAN_MOTION_DOT = .13418E-3
MEAN_MOTION_DDOT = 0

CCSDS_OMM_VERS = 2.0
CREATION_DATE  = 
ORIGINATOR     = 

OBJECT_NAME    = SL-3 R/B
OBJECT_ID      = 1983-075B
CENTER_NAME    = EARTH
REF_FRAME      = TEME
TIME_SYSTEM    = UTC
MEAN_ELEMENT_THEORY = SGP/SGP4

EPOCH          = 2026-01-31T03:28:20.070336
MEAN_MOTION    = 15.37420483
ECCENTRICITY   = .0022401
INCLINATION    = 97.6118
RA_OF_ASC_NODE = 34.3368
ARG_OF_PERICENTER = 9.7505
MEAN_ANOMALY   = 350.4169

EPHEMERIS_TYPE = 0
CLASSIFICATION_TYPE = U
NORAD_CAT_ID   = 14208
ELEMENT_SET_NO = 999
REV_AT_EPOCH   = 32438
BSTAR          = .32305E-3
MEAN_MOTION_DOT = .11868E-3
MEAN_MOTION_DDOT = 0

CCSDS_OMM_VERS = 2.0
CREATION_DATE  = 
ORIGINATOR     = 

OBJECT_NAME    = COSMOS 1536
OBJECT_ID      = 1984-013A
CENTER_NAME    = EARTH
REF_FRAME      = TEME
TIME_SYSTEM    = UTC
MEAN_ELEMENT_THEORY = SGP/SGP4

EPOCH          = 2026-01-30T19:46:26.557536
MEAN_MOTION    = 15.23299105
ECCENTRICITY   = .0015427
INCLINATION    = 82.5478
RA_OF_ASC_NODE = 145.4642
ARG_OF_PERICENTER = 58.9640
MEAN_ANOMALY   = 301.3109

EPHEMERIS_TYPE = 0
CLASSIFICATION_TYPE = U
NORAD_CAT_ID   = 14699
ELEMENT_SET_NO = 999
REV_AT_EPOCH   = 26685
BSTAR          = .30002836E-3
MEAN_MOTION_DOT = .7171E-4
MEAN_MOTION_DDOT = 0

CCSDS_OMM_VERS = 2.0
CREATION_DATE  = 
ORIGINATOR     = 

OBJECT_NAME    = SL-14 R/B
OBJECT_ID      = 1984-027B
CENTER_NAME    = EARTH
REF_FRAME      = TEME
TIME_SYSTEM    = UTC
MEAN_ELEMENT_THEORY = SGP/SGP4

EPOCH          = 2026-01-31T02:50:28.052736
MEAN_MOTION    = 14.85938117
ECCENTRICITY   = .0019515
INCLINATION    = 82.5413
RA_OF_ASC_NODE = 280.2561
ARG_OF_PERICENTER = 97.1972
MEAN_ANOMALY   = 263.1464

EPHEMERIS_TYPE = 0
CLASSIFICATION_TYPE = U
NORAD_CAT_ID   = 14820
ELEMENT_SET_NO = 999
REV_AT_EPOCH   = 24205
BSTAR          = .60534E-4
MEAN_MOTION_DOT = .554E-5
MEAN_MOTION_DDOT = 0

CCSDS_OMM_VERS = 2.0
CREATION_DATE  = 
ORIGINATOR     = 

OBJECT_NAME    = SL-8 R/B
OBJECT_ID      = 1985-006B
CENTER_NAME    = EARTH
REF_FRAME      = TEME
TIME_SYSTEM    = UTC
MEAN_ELEMENT_THEORY = SGP/SGP4

EPOCH          = 2026-01-31T03:53:13.721568
MEAN_MOTION    = 14.37762345
ECCENTRICITY   = .0019695
INCLINATION    = 74.0477
RA_OF_ASC_NODE = 330.2002
ARG_OF_PERICENTER = 254.8842
MEAN_ANOMALY   = 205.7872

EPHEMERIS_TYPE = 0
CLASSIFICATION_TYPE = U
NORAD_CAT_ID   = 15483
ELEMENT_SET_NO = 999
REV_AT_EPOCH   = 14863
BSTAR          = .11654E-3
MEAN_MOTION_DOT = .325E-5
MEAN_MOTION_DDOT = 0

CCSDS_OMM_VERS = 2.0
CREATION_DATE  = 
ORIGINATOR     = 

OBJECT_NAME    = SL-12 R/B(2)
OBJECT_ID      = 1985-042D
CENTER_NAME    = EARTH
REF_FRAME      = TEME
TIME_SYSTEM    = UTC
MEAN_ELEMENT_THEORY = SGP/SGP4

EPOCH          = 2026-01-31T03:37:38.748288
MEAN_MOTION    = 14.21970439
ECCENTRICITY   = .0035462
INCLINATION    = 71.1080
RA_OF_ASC_NODE = 167.0338
ARG_OF_PERICENTER = 187.7968
MEAN_ANOMALY   = 344.5637

EPHEMERIS_TYPE = 0
CLASSIFICATION_TYPE = U
NORAD_CAT_ID   = 15772
ELEMENT_SET_NO = 999
REV_AT_EPOCH   = 10905
BSTAR          = .11331E-3
MEAN_MOTION_DOT = .204E-5
MEAN_MOTION_DDOT = 0

CCSDS_OMM_VERS = 2.0
CREATION_DATE  = 
ORIGINATOR     = 

OBJECT_NAME    = SL-14 R/B
OBJECT_ID      = 1985-069B
CENTER_NAME    = EARTH
REF_FRAME      = TEME
TIME_SYSTEM    = UTC
MEAN_ELEMENT_THEORY = SGP/SGP4

EPOCH          = 2026-01-31T02:44:56.248224
MEAN_MOTION    = 14.86387579
ECCENTRICITY   = .0017744
INCLINATION    = 82.5240
RA_OF_ASC_NODE = 60.2754
ARG_OF_PERICENTER = 320.7727
MEAN_ANOMALY   = 39.2203

EPHEMERIS_TYPE = 0
CLASSIFICATION_TYPE = U
NORAD_CAT_ID   = 15945
ELEMENT_SET_NO = 999
REV_AT_EPOCH   = 16725
BSTAR          = .62945E-4
MEAN_MOTION_DOT = .581E-5
MEAN_MOTION_DDOT = 0

CCSDS_OMM_VERS = 2.0
CREATION_DATE  = 
ORIGINATOR     = 

OBJECT_NAME    = SL-16 R/B
OBJECT_ID      = 1985-097B
CENTER_NAME    = EARTH
REF_FRAME      = TEME
TIME_SYSTEM    = UTC
MEAN_ELEMENT_THEORY = SGP/SGP4

EPOCH          = 2026-01-31T00:23:50.078112
MEAN_MOTION    = 14.16593276
ECCENTRICITY   = .0009214
INCLINATION    = 71.0008
RA_OF_ASC_NODE = 219.8627
ARG_OF_PERICENTER = 304.0599
MEAN_ANOMALY   = 217.2133

EPHEMERIS_TYPE = 0
CLASSIFICATION_TYPE = U
NORAD_CAT_ID   = 16182
ELEMENT_SET_NO = 999
REV_AT_EPOCH   = 8189
BSTAR          = .16797E-3
MEAN_MOTION_DOT = .287E-5
MEAN_MOTION_DDOT = 0

CCSDS_OMM_VERS = 2.0
CREATION_DATE  = 
ORIGINATOR     = 

OBJECT_NAME    = SL-14 R/B
OBJECT_ID      = 1986-006B
CENTER_NAME    = EARTH
REF_FRAME      = TEME
TIME_SYSTEM    = UTC
MEAN_ELEMENT_THEORY = SGP/SGP4

EPOCH          = 2026-01-31T02:26:04.573248
MEAN_MOTION    = 14.86758376
ECCENTRICITY   = .0077638
INCLINATION    = 82.5281
RA_OF_ASC_NODE = 295.1135
ARG_OF_PERICENTER = 38.2266
MEAN_ANOMALY   = 322.4419

EPHEMERIS_TYPE = 0
CLASSIFICATION_TYPE = U
NORAD_CAT_ID   = 16496
ELEMENT_SET_NO = 999
REV_AT_EPOCH   = 14362
BSTAR          = .96188E-4
MEAN_MOTION_DOT = .932E-5
MEAN_MOTION_DDOT = 0

CCSDS_OMM_VERS = 2.0
CREATION_DATE  = 
ORIGINATOR     = 

OBJECT_NAME    = COSMOS 1743
OBJECT_ID      = 1986-034A
CENTER_NAME    = EARTH
REF_FRAME      = TEME
TIME_SYSTEM    = UTC
MEAN_ELEMENT_THEORY = SGP/SGP4

EPOCH          = 2026-01-30T15:54:17.553024
MEAN_MOTION    = 15.55775273
ECCENTRICITY   = .00054038
INCLINATION    = 82.5351
RA_OF_ASC_NODE = 113.6501
ARG_OF_PERICENTER = 77.5049
MEAN_ANOMALY   = 282.6809

EPHEMERIS_TYPE = 0
CLASSIFICATION_TYPE = U
NORAD_CAT_ID   = 16719
ELEMENT_SET_NO = 999
REV_AT_EPOCH   = 17433
BSTAR          = .52820278E-3
MEAN_MOTION_DOT = .36582E-3
MEAN_MOTION_DDOT = 0

